{
  "type": "FeatureCollection",
  "features": [
    {
      "type": "Feature",
      "properties": {
        "norad_id": 34003,
        "name": "COSMOS 2251 DEB",
        "group": "cosmos-2251-debris",
        "lat": -54.26837604124938,
        "lon": 134.413316223814,
        "alt_km": 1150.7721768186575,
        "timestamp": "2025-12-09T05:43:21.119708+00:00",
        "meta_object_name": "COSMOS 2251 DEB",
        "meta_object_id": "1993-036GN",
        "meta_epoch": "2025-12-08T07:46:12.371520",
        "meta_mean_motion": 13.8411183,
        "meta_eccentricity": 0.02740033,
        "meta_inclination": 74.0787,
        "meta_ra_of_asc_node": 292.5761,
        "meta_arg_of_pericenter": 45.6277,
        "meta_mean_anomaly": 316.6938,
        "meta_ephemeris_type": 0,
        "meta_classification_type": "U",
        "meta_norad_cat_id": 34003,
        "meta_element_set_no": 999,
        "meta_rev_at_epoch": 84364,
        "meta_bstar": 0.0031943304,
        "meta_mean_motion_dot": 4.737e-05,
        "meta_mean_motion_ddot": 0,
        "tle_line1": "1 34003U 93036GN  25342.32375430  .00004737  00000+0  31943-2 0  9996",
        "tle_line2": "2 34003  74.0787 292.5761 0274003  45.6277 316.6938 13.84111830843645"
      },
      "geometry": {
        "type": "Point",
        "coordinates": [
          134.413316223814,
          -54.26837604124938
        ]
      }
    },
    {
      "type": "Feature",
      "properties": {
        "norad_id": 34004,
        "name": "COSMOS 2251 DEB",
        "group": "cosmos-2251-debris",
        "lat": 37.78181691944607,
        "lon": 126.85474936414506,
        "alt_km": 749.129069855252,
        "timestamp": "2025-12-09T05:43:21.119719+00:00",
        "meta_object_name": "COSMOS 2251 DEB",
        "meta_object_id": "1993-036GP",
        "meta_epoch": "2025-12-08T09:11:31.695936",
        "meta_mean_motion": 14.48939814,
        "meta_eccentricity": 0.0033338,
        "meta_inclination": 74.0363,
        "meta_ra_of_asc_node": 321.2778,
        "meta_arg_of_pericenter": 334.1452,
        "meta_mean_anomaly": 25.804,
        "meta_ephemeris_type": 0,
        "meta_classification_type": "U",
        "meta_norad_cat_id": 34004,
        "meta_element_set_no": 999,
        "meta_rev_at_epoch": 87967,
        "meta_bstar": 0.0019617699,
        "meta_mean_motion_dot": 7.463e-05,
        "meta_mean_motion_ddot": 0,
        "tle_line1": "1 34004U 93036GP  25342.38300574  .00007463  00000+0  19618-2 0  9994",
        "tle_line2": "2 34004  74.0363 321.2778 0033338 334.1452  25.8040 14.48939814879675"
      },
      "geometry": {
        "type": "Point",
        "coordinates": [
          126.85474936414506,
          37.78181691944607
        ]
      }
    },
    {
      "type": "Feature",
      "properties": {
        "norad_id": 34005,
        "name": "COSMOS 2251 DEB",
        "group": "cosmos-2251-debris",
        "lat": 16.014487820992592,
        "lon": 35.4063045683986,
        "alt_km": 772.5527417756848,
        "timestamp": "2025-12-09T05:43:21.119730+00:00",
        "meta_object_name": "COSMOS 2251 DEB",
        "meta_object_id": "1993-036GQ",
        "meta_epoch": "2025-12-08T19:20:38.641920",
        "meta_mean_motion": 14.40300566,
        "meta_eccentricity": 0.00207,
        "meta_inclination": 74.0449,
        "meta_ra_of_asc_node": 220.9149,
        "meta_arg_of_pericenter": 339.7729,
        "meta_mean_anomaly": 102.1513,
        "meta_ephemeris_type": 0,
        "meta_classification_type": "U",
        "meta_norad_cat_id": 34005,
        "meta_element_set_no": 999,
        "meta_rev_at_epoch": 88322,
        "meta_bstar": 0.00021153,
        "meta_mean_motion_dot": 6.45e-06,
        "meta_mean_motion_ddot": 0,
        "tle_line1": "1 34005U 93036GQ  25342.80600280  .00000645  00000+0  21153-3 0  9992",
        "tle_line2": "2 34005  74.0449 220.9149 0020700 339.7729 102.1513 14.40300566883223"
      },
      "geometry": {
        "type": "Point",
        "coordinates": [
          35.4063045683986,
          16.014487820992592
        ]
      }
    },
    {
      "type": "Feature",
      "properties": {
        "norad_id": 34006,
        "name": "COSMOS 2251 DEB",
        "group": "cosmos-2251-debris",
        "lat": 67.99773462827854,
        "lon": -74.70778602933972,
        "alt_km": 569.3480446849653,
        "timestamp": "2025-12-09T05:43:21.119741+00:00",
        "meta_object_name": "COSMOS 2251 DEB",
        "meta_object_id": "1993-036GR",
        "meta_epoch": "2025-12-08T05:56:44.562336",
        "meta_mean_motion": 14.94253736,
        "meta_eccentricity": 0.00116603,
        "meta_inclination": 74.0536,
        "meta_ra_of_asc_node": 152.3261,
        "meta_arg_of_pericenter": 104.3242,
        "meta_mean_anomaly": 73.8105,
        "meta_ephemeris_type": 0,
        "meta_classification_type": "U",
        "meta_norad_cat_id": 34006,
        "meta_element_set_no": 999,
        "meta_rev_at_epoch": 88601,
        "meta_bstar": 0.0040023646,
        "meta_mean_motion_dot": 0.00043241,
        "meta_mean_motion_ddot": 0,
        "tle_line1": "1 34006U 93036GR  25342.24773799  .00043241  00000+0  40024-2 0  9993",
        "tle_line2": "2 34006  74.0536 152.3261 0011660 104.3242  73.8105 14.94253736886011"
      },
      "geometry": {
        "type": "Point",
        "coordinates": [
          -74.70778602933972,
          67.99773462827854
        ]
      }
    },
    {
      "type": "Feature",
      "properties": {
        "norad_id": 34007,
        "name": "COSMOS 2251 DEB",
        "group": "cosmos-2251-debris",
        "lat": 54.04575820397464,
        "lon": 16.908254895389106,
        "alt_km": 662.7859608092222,
        "timestamp": "2025-12-09T05:43:21.119752+00:00",
        "meta_object_name": "COSMOS 2251 DEB",
        "meta_object_id": "1993-036GS",
        "meta_epoch": "2025-12-08T17:59:12.798816",
        "meta_mean_motion": 14.64743596,
        "meta_eccentricity": 0.0044461,
        "meta_inclination": 74.0194,
        "meta_ra_of_asc_node": 354.5773,
        "meta_arg_of_pericenter": 130.8247,
        "meta_mean_anomaly": 229.679,
        "meta_ephemeris_type": 0,
        "meta_classification_type": "U",
        "meta_norad_cat_id": 34007,
        "meta_element_set_no": 999,
        "meta_rev_at_epoch": 89021,
        "meta_bstar": 0.0010987,
        "meta_mean_motion_dot": 5.913e-05,
        "meta_mean_motion_ddot": 0,
        "tle_line1": "1 34007U 93036GS  25342.74945369  .00005913  00000+0  10987-2 0  9992",
        "tle_line2": "2 34007  74.0194 354.5773 0044461 130.8247 229.6790 14.64743596890213"
      },
      "geometry": {
        "type": "Point",
        "coordinates": [
          16.908254895389106,
          54.04575820397464
        ]
      }
    },
    {
      "type": "Feature",
      "properties": {
        "norad_id": 34008,
        "name": "COSMOS 2251 DEB",
        "group": "cosmos-2251-debris",
        "lat": 18.945478621190627,
        "lon": 151.27858981825997,
        "alt_km": 798.2660998068695,
        "timestamp": "2025-12-09T05:43:21.119762+00:00",
        "meta_object_name": "COSMOS 2251 DEB",
        "meta_object_id": "1993-036GT",
        "meta_epoch": "2025-12-08T11:05:59.840160",
        "meta_mean_motion": 14.33141983,
        "meta_eccentricity": 0.00241764,
        "meta_inclination": 74.0341,
        "meta_ra_of_asc_node": 338.3357,
        "meta_arg_of_pericenter": 334.3681,
        "meta_mean_anomaly": 144.1099,
        "meta_ephemeris_type": 0,
        "meta_classification_type": "U",
        "meta_norad_cat_id": 34008,
        "meta_element_set_no": 999,
        "meta_rev_at_epoch": 87903,
        "meta_bstar": 0.00023568978,
        "meta_mean_motion_dot": 6.23e-06,
        "meta_mean_motion_ddot": 0,
        "tle_line1": "1 34008U 93036GT  25342.46249815  .00000623  00000+0  23569-3 0  9999",
        "tle_line2": "2 34008  74.0341 338.3357 0024176 334.3681 144.1099 14.33141983879038"
      },
      "geometry": {
        "type": "Point",
        "coordinates": [
          151.27858981825997,
          18.945478621190627
        ]
      }
    },
    {
      "type": "Feature",
      "properties": {
        "norad_id": 34009,
        "name": "COSMOS 2251 DEB",
        "group": "cosmos-2251-debris",
        "lat": -14.887306815442805,
        "lon": 167.69985916134146,
        "alt_km": 800.0335705268808,
        "timestamp": "2025-12-09T05:43:21.119773+00:00",
        "meta_object_name": "COSMOS 2251 DEB",
        "meta_object_id": "1993-036GU",
        "meta_epoch": "2025-12-08T17:54:38.020032",
        "meta_mean_motion": 14.33217854,
        "meta_eccentricity": 0.0026381,
        "meta_inclination": 74.037,
        "meta_ra_of_asc_node": 344.2349,
        "meta_arg_of_pericenter": 55.1474,
        "meta_mean_anomaly": 121.6978,
        "meta_ephemeris_type": 0,
        "meta_classification_type": "U",
        "meta_norad_cat_id": 34009,
        "meta_element_set_no": 999,
        "meta_rev_at_epoch": 87888,
        "meta_bstar": 0.00026329,
        "meta_mean_motion_dot": 7.01e-06,
        "meta_mean_motion_ddot": 0,
        "tle_line1": "1 34009U 93036GU  25342.74627338  .00000701  00000+0  26329-3 0  9995",
        "tle_line2": "2 34009  74.0370 344.2349 0026381  55.1474 121.6978 14.33217854878885"
      },
      "geometry": {
        "type": "Point",
        "coordinates": [
          167.69985916134146,
          -14.887306815442805
        ]
      }
    }
  ]
}